NORAD_CAT_ID,OBJECT_NAME,OBJECT_TYPE,EPOCH,MEAN_MOTION,ECCENTRICITY,INCLINATION,RA_OF_ASC_NODE,ARG_OF_PERICENTER,MEAN_ANOMALY,BSTAR,MEAN_MOTION_DOT,MEAN_MOTION_DDOT,TLE_LINE0,TLE_LINE1,TLE_LINE2,SEMIMAJOR_AXIS,PERIOD,APOGEE,PERIGEE,DECAYED
53282.0,STARLINK-4164,PAYLOAD,2024-02-08 02:42:09,15.08842063,0.0001604,53.2199,358.4911,107.0964,253.0204,4.3838e-05,4.1e-06,0.0,0 STARLINK-4164,1 53282U 22086AS  24039.11260680  .00000410  00000-0  43838-4 0  9995,2 53282  53.2199 358.4911 0001604 107.0964 253.0204 15.08842063 86377,6917.874,95.437,540.849,538.629,0.0
53282.0,STARLINK-4164,PAYLOAD,2024-02-08 21:46:47,15.08837688,0.0001573,53.2204,354.9247,108.6491,251.4672,0.00015788,2.225e-05,0.0,0 STARLINK-4164,1 53282U 22086AS  24039.90749079  .00002225  00000-0  15788-3 0  9994,2 53282  53.2204 354.9247 0001573 108.6491 251.4672 15.08837688 86495,6917.887,95.438,540.841,538.664,0.0
53282.0,STARLINK-4164,PAYLOAD,2024-02-09 02:32:56,15.08843295,0.0001496,53.2189,354.0314,108.5323,251.5832,0.00020904,3.041e-05,0.0,0 STARLINK-4164,1 53282U 22086AS  24040.10620785  .00003041  00000-0  20904-3 0  9993,2 53282  53.2189 354.0314 0001496 108.5323 251.5832 15.08843295 86355,6917.87,95.437,540.77,538.7,0.0
53282.0,STARLINK-4164,PAYLOAD,2024-02-10 03:59:06,15.08839107,0.0001318,53.2177,349.2656,98.3131,261.801,4.2899e-05,3.95e-06,0.0,0 STARLINK-4164,1 53282U 22086AS  24041.16605073  .00000395  00000-0  42899-4 0  9990,2 53282  53.2177 349.2656 0001318  98.3131 261.8010 15.08839107 86510,6917.883,95.438,540.66,538.836,0.0
53282.0,STARLINK-4164,PAYLOAD,2024-02-10 05:34:29,15.08841428,0.000137,53.218,348.9678,101.8271,258.2875,7.819e-05,9.57e-06,0.0,0 STARLINK-4164,1 53282U 22086AS  24041.23228972  .00000957  00000-0  78190-4 0  9994,2 53282  53.2180 348.9678 0001370 101.8271 258.2875 15.08841428 86694,6917.876,95.437,540.689,538.793,0.0
53282.0,STARLINK-4164,PAYLOAD,2024-02-11 05:25:16,15.08850084,0.0001559,53.2188,344.5025,86.6643,273.4527,0.00017343,2.474e-05,0.0,0 STARLINK-4164,1 53282U 22086AS  24042.22588673  .00002474  00000-0  17343-3 0  9999,2 53282  53.2188 344.5025 0001559  86.6643 273.4527 15.08850084 86671,6917.85,95.437,540.793,538.636,0.0
53282.0,STARLINK-4164,PAYLOAD,2024-02-12 05:16:03,15.08855974,0.0001995,53.219,340.0458,99.2618,260.86,0.00028639,4.275e-05,0.0,0 STARLINK-4164,1 53282U 22086AS  24043.21948304  .00004275  00000-0  28639-3 0  9991,2 53282  53.2190 340.0458 0001995  99.2618 260.8600 15.08855974 86991,6917.832,95.437,541.077,538.316,0.0
53282.0,STARLINK-4164,PAYLOAD,2024-02-12 19:34:32,15.08836552,0.000124,53.219,337.3668,90.3788,269.7347,-0.00012324,-2.248e-05,0.0,0 STARLINK-4164,1 53282U 22086AS  24043.81565167 -.00002248  00000-0 -12324-3 0  9993,2 53282  53.2190 337.3668 0001240  90.3788 269.7347 15.08836552 86915,6917.891,95.438,540.614,538.898,0.0
53282.0,STARLINK-4164,PAYLOAD,2024-02-13 01:56:04,15.08842476,0.0001492,53.2183,336.1832,98.9133,261.2028,-6.2751e-05,-1.287e-05,0.0,0 STARLINK-4164,1 53282U 22086AS  24044.08060738 -.00001287  00000-0 -62751-4 0  9999,2 53282  53.2183 336.1832 0001492  98.9133 261.2028 15.08842476 86953,6917.873,95.437,540.77,538.706,0.0
53282.0,STARLINK-4164,PAYLOAD,2024-02-13 22:36:05,15.08844671,0.0001414,53.2174,332.3217,104.6159,255.499,-6.3678e-05,-1.301e-05,0.0,0 STARLINK-4164,1 53282U 22086AS  24044.94172818 -.00001301  00000-0 -63678-4 0  9993,2 53282  53.2174 332.3217 0001414 104.6159 255.4990 15.08844671 87251,6917.866,95.437,540.709,538.753,0.0
53282.0,STARLINK-4164,PAYLOAD,2024-02-14 04:57:37,15.08852699,0.0001402,53.2174,331.1275,105.8258,254.2889,7.235e-05,8.64e-06,0.0,0 STARLINK-4164,1 53282U 22086AS  24045.20668326  .00000864  00000-0  72350-4 0  9995,2 53282  53.2174 331.1275 0001402 105.8258 254.2889 15.08852699 87121,6917.842,95.437,540.676,538.737,0.0
53282.0,STARLINK-4164,PAYLOAD,2024-02-14 19:16:06,15.08838756,0.0001357,53.2172,328.4452,132.2134,227.8973,1.4248e-05,-6.1e-07,0.0,0 STARLINK-4164,1 53282U 22086AS  24045.80284943 -.00000061  00000-0  14248-4 0  9992,2 53282  53.2172 328.4452 0001357 132.2134 227.8973 15.08838756 87219,6917.884,95.438,540.688,538.81,0.0
53282.0,STARLINK-4164,PAYLOAD,2024-02-14 22:26:52,15.08839874,0.0001455,53.217,327.8506,129.6796,230.4324,2.9244e-05,1.77e-06,0.0,0 STARLINK-4164,1 53282U 22086AS  24045.93532884  .00000177  00000-0  29244-4 0  9995,2 53282  53.2170 327.8506 0001455 129.6796 230.4324 15.08839874 87406,6917.881,95.438,540.752,538.739,0.0
53282.0,STARLINK-4164,PAYLOAD,2024-02-15 01:37:38,15.08848224,0.0001451,53.2175,327.266,117.5157,242.5983,0.00027504,4.093e-05,0.0,0 STARLINK-4164,1 53282U 22086AS  24046.06780788  .00004093  00000-0  27504-3 0  9995,2 53282  53.2175 327.2660 0001451 117.5157 242.5983 15.08848224 87256,6917.855,95.437,540.724,538.716,0.0
53282.0,STARLINK-4164,PAYLOAD,2024-02-15 19:06:54,15.08818578,0.0001017,53.2175,323.9897,100.783,259.3277,-0.00030399,-5.12e-05,0.0,0 STARLINK-4164,1 53282U 22086AS  24046.79646221 -.00005120  00000-0 -30399-3 0  9998,2 53282  53.2175 323.9897 0001017 100.7830 259.3277 15.08818578 87364,6917.946,95.439,540.514,539.107,0.0
53282.0,STARLINK-4164,PAYLOAD,2024-02-15 22:17:40,15.08827154,0.0001566,53.2184,323.3994,111.2754,248.8406,-0.00013028,-2.36e-05,0.0,0 STARLINK-4164,1 53282U 22086AS  24046.92894072 -.00002360  00000-0 -13028-3 0  9995,2 53282  53.2184 323.3994 0001566 111.2754 248.8406 15.08827154 87555,6917.92,95.438,540.868,538.701,0.0
53282.0,STARLINK-4164,PAYLOAD,2024-02-16 01:28:26,15.08830941,0.00016,53.2185,322.8082,113.1067,247.0094,-4.2153e-05,-9.59e-06,0.0,0 STARLINK-4164,1 53282U 22086AS  24047.06141965 -.00000959  00000-0 -42153-4 0  9991,2 53282  53.2185 322.8082 0001600 113.1067 247.0094 15.08830941 87401,6917.908,95.438,540.88,538.666,0.0
53282.0,STARLINK-4164,PAYLOAD,2024-02-16 11:00:45,15.08837533,0.0001565,53.2188,321.0233,112.9189,247.1968,2.5972e-06,-2.47e-06,0.0,0 STARLINK-4164,1 53282U 22086AS  24047.45885786 -.00000247  00000-0  25972-5 0  9990,2 53282  53.2188 321.0233 0001565 112.9189 247.1968 15.08837533 87635,6917.888,95.438,540.836,538.67,0.0
53282.0,STARLINK-4164,PAYLOAD,2024-02-16 18:57:41,15.0884038,0.0001637,53.2189,319.5366,116.192,243.9241,-2.6099e-05,-7.03e-06,0.0,0 STARLINK-4164,1 53282U 22086AS  24047.79005808 -.00000703  00000-0 -26099-4 0  9994,2 53282  53.2189 319.5366 0001637 116.1920 243.9241 15.08840380 87513,6917.879,95.438,540.877,538.612,0.0
53282.0,STARLINK-4164,PAYLOAD,2024-02-16 22:08:27,15.08840386,0.0001672,53.2189,318.9421,117.047,243.0693,8.297e-05,1.033e-05,0.0,0 STARLINK-4164,1 53282U 22086AS  24047.92253846  .00001033  00000-0  82970-4 0  9991,2 53282  53.2189 318.9421 0001672 117.0470 243.0693 15.08840386 87706,6917.879,95.438,540.901,538.588,0.0
53282.0,STARLINK-4164,PAYLOAD,2024-02-17 10:51:32,15.0884259,0.0001603,53.2168,316.5594,92.8995,267.2181,0.00033401,5.032e-05,0.0,0 STARLINK-4164,1 53282U 22086AS  24048.45246052  .00005032  00000-0  33401-3 0  9998,2 53282  53.2168 316.5594 0001603  92.8995 267.2181 15.08842590 87781,6917.872,95.437,540.846,538.629,0.0
53282.0,STARLINK-4164,PAYLOAD,2024-02-17 21:59:14,15.08840093,0.0001748,53.2174,314.4788,92.3764,267.7429,0.00016438,2.329e-05,0.0,0 STARLINK-4164,1 53282U 22086AS  24048.91614223  .00002329  00000-0  16438-3 0  9995,2 53282  53.2174 314.4788 0001748  92.3764 267.7429 15.08840093 87853,6917.88,95.438,540.954,538.536,0.0
53282.0,STARLINK-4164,PAYLOAD,2024-02-18 02:45:23,15.08843093,0.0001288,53.2169,313.5854,89.8289,270.2851,0.00021557,3.145e-05,0.0,0 STARLINK-4164,1 53282U 22086AS  24049.11486032  .00003145  00000-0  21557-3 0  9998,2 53282  53.2169 313.5854 0001288  89.8289 270.2851 15.08843093 87719,6917.871,95.437,540.627,538.845,0.0
53282.0,STARLINK-4164,PAYLOAD,2024-02-18 23:25:24,15.08844402,0.000123,53.216,309.7203,88.9333,271.18,0.00016891,2.402e-05,0.0,0 STARLINK-4164,1 53282U 22086AS  24049.97597916  .00002402  00000-0  16891-3 0  9996,2 53282  53.2160 309.7203 0001230  88.9333 271.1800 15.08844402 88015,6917.867,95.437,540.583,538.881,0.0
53282.0,STARLINK-4164,PAYLOAD,2024-02-19 10:33:06,15.08839701,0.0001492,53.2169,307.6375,85.5658,274.5505,0.00010399,1.367e-05,0.0,0 STARLINK-4164,1 53282U 22086AS  24050.43966051  .00001367  00000-0  10399-3 0  9995,2 53282  53.2169 307.6375 0001492  85.5658 274.5505 15.08839701 87917,6917.881,95.438,540.778,538.714,0.0
53282.0,STARLINK-4164,PAYLOAD,2024-02-19 23:16:11,15.08838576,0.00012,53.217,305.2579,85.9356,274.1774,0.00010739,1.422e-05,0.0,0 STARLINK-4164,1 53282U 22086AS  24050.96958147  .00001422  00000-0  10739-3 0  9990,2 53282  53.2170 305.2579 0001200  85.9356 274.1774 15.08838576 88166,6917.885,95.438,540.58,538.92,0.0
53282.0,STARLINK-4164,PAYLOAD,2024-02-20 02:26:57,15.088465,0.0001446,53.2173,304.6631,85.2673,274.8484,0.00019159,2.763e-05,0.0,0 STARLINK-4164,1 53282U 22086AS  24051.10205857  .00002763  00000-0  19159-3 0  9994,2 53282  53.2173 304.6631 0001446  85.2673 274.8484 15.08846500 88181,6917.861,95.437,540.726,538.725,0.0
53282.0,STARLINK-4164,PAYLOAD,2024-02-20 19:56:12,15.08840019,0.0001446,53.2172,301.3929,80.6798,279.4358,9.7676e-05,1.267e-05,0.0,0 STARLINK-4164,1 53282U 22086AS  24051.83070236  .00001267  00000-0  97676-4 0  9994,2 53282  53.2172 301.3929 0001446  80.6798 279.4358 15.08840019 88125,6917.88,95.438,540.746,538.745,0.0
53282.0,STARLINK-4164,PAYLOAD,2024-02-20 23:06:58,15.08862543,0.0001427,53.2172,300.7988,92.6364,267.4792,0.00048306,7.413e-05,0.0,0 STARLINK-4164,1 53282U 22086AS  24051.96317511  .00007413  00000-0  48306-3 0  9992,2 53282  53.2172 300.7988 0001427  92.6364 267.4792 15.08862543 88310,6917.811,95.436,540.664,538.689,0.0
53282.0,STARLINK-4164,PAYLOAD,2024-02-21 02:17:44,15.08866526,0.0001362,53.2169,300.203,85.7019,274.4129,0.0005613,8.663e-05,0.0,0 STARLINK-4164,1 53282U 22086AS  24052.09565245  .00008663  00000-0  56130-3 0  9998,2 53282  53.2169 300.2030 0001362  85.7019 274.4129 15.08866526 88167,6917.799,95.436,540.607,538.722,0.0
